IRIDIUM 106             
1 41917U 17003A   24255.55067122  .00000060  00000+0  14482-4 0  9997
2 41917  86.4034 357.4981 0001891 103.3433 256.7974 14.34214734400953
IRIDIUM 103             
1 41918U 17003B   24255.53798463  .00000351  00000+0  11825-3 0  9995
2 41918  86.4031 357.4052 0001661  85.6301 274.5084 14.34213670400971
IRIDIUM 109             
1 41919U 17003C   24255.54432994  .00000142  00000+0  43583-4 0  9996
2 41919  86.4030 357.4512 0002332  86.6658 273.4805 14.34219314400941
IRIDIUM 102             
1 41920U 17003D   24255.58238593  .00000203  00000+0  65276-4 0  9992
2 41920  86.4031 357.3724 0002175  95.1524 264.9920 14.34217958401036
IRIDIUM 105             
1 41921U 17003E   24255.48329755  .00001141  00000+0  40042-3 0  9998
2 41921  86.4002 325.8668 0002024  94.6243 265.5184 14.34219476402876
IRIDIUM 104             
1 41922U 17003F   24255.52530169  .00000389  00000+0  13197-3 0  9991
2 41922  86.4032 357.4288 0002283  83.9168 276.2287 14.34215365401014
IRIDIUM 114             
1 41923U 17003G   24255.53164205  .00002560  00000+0  90681-3 0  9993
2 41923  86.4029 357.4120 0001957 100.1004 260.0413 14.34224653400992
IRIDIUM 108             
1 41924U 17003H   24255.55991475  .00001181  00000+0  41454-3 0  9995
2 41924  86.3997 325.7541 0002116  97.2411 262.9026 14.34229455402850
